#Pass ID: 20250129_035238_FENGYUN 3E
#Satellite: FENGYUN 3E
#Configuration: FENGYUN 3E
#Start time: 2025-01-29 03:52:43.952381

#LorettStation: 1.0.0 05.05.2024
#Station: Regia
#Location: 37.494653 lon 55.929028 lat
#TLE: 1 49008U 21062A   25027.87220707  .00000085  00000+0  60626-4 0  9997
#TLE: 2 49008  98.7402  32.2249 0002638  99.5018 260.6457 14.19836332184874

#Time	Az	El	Level	SNR
#Closed at: 2025-01-29 03:52:38.954212